STARLINK-30814          
1 58165U 23166R   26068.69220594 -.00002322  00000+0 -66281-4 0  9999
2 58165  53.1605 219.3221 0000795  79.5515 280.5576 15.30205128133186
TOMORROW-S2             
1 60485U 24149T   26068.75188364  .00008133  00000+0  27683-3 0  9990
2 60485  97.3857 150.0385 0001648 234.3331 125.7757 15.30674935 86869
