[{"OBJECT_NAME":"STARLINK-30814","OBJECT_ID":"2023-166R","EPOCH":"2026-03-09T16:36:46.593216","MEAN_MOTION":15.30205128,"ECCENTRICITY":7.947e-5,"INCLINATION":53.1605,"RA_OF_ASC_NODE":219.3221,"ARG_OF_PERICENTER":79.5515,"MEAN_ANOMALY":280.5576,"EPHEMERIS_TYPE":0,"CLASSIFICATION_TYPE":"U","NORAD_CAT_ID":58165,"ELEMENT_SET_NO":999,"REV_AT_EPOCH":13318,"BSTAR":-6.6281142e-5,"MEAN_MOTION_DOT":-2.322e-5,"MEAN_MOTION_DDOT":0},{"OBJECT_NAME":"TOMORROW-S2","OBJECT_ID":"2024-149T","EPOCH":"2026-03-09T18:02:42.746496","MEAN_MOTION":15.30674935,"ECCENTRICITY":0.0001648,"INCLINATION":97.3857,"RA_OF_ASC_NODE":150.0385,"ARG_OF_PERICENTER":234.3331,"MEAN_ANOMALY":125.7757,"EPHEMERIS_TYPE":0,"CLASSIFICATION_TYPE":"U","NORAD_CAT_ID":60485,"ELEMENT_SET_NO":999,"REV_AT_EPOCH":8686,"BSTAR":0.00027683033,"MEAN_MOTION_DOT":8.133e-5,"MEAN_MOTION_DDOT":0}]
